[{"OBJECT_NAME":"JILIN-1 05","OBJECT_ID":"2017-074B","EPOCH":"2026-03-09T21:56:30.612480","MEAN_MOTION":15.3245271,"ECCENTRICITY":0.00045948,"INCLINATION":97.4781,"RA_OF_ASC_NODE":173.8936,"ARG_OF_PERICENTER":206.4038,"MEAN_ANOMALY":153.6971,"EPHEMERIS_TYPE":0,"CLASSIFICATION_TYPE":"U","NORAD_CAT_ID":43023,"ELEMENT_SET_NO":999,"REV_AT_EPOCH":45879,"BSTAR":0.00026108793,"MEAN_MOTION_DOT":8.104e-5,"MEAN_MOTION_DDOT":0},{"OBJECT_NAME":"STARLINK-35573","OBJECT_ID":"2025-237C","EPOCH":"2026-03-09T07:16:17.175648","MEAN_MOTION":15.30196329,"ECCENTRICITY":0.00013646,"INCLINATION":53.1607,"RA_OF_ASC_NODE":41.2626,"ARG_OF_PERICENTER":85.8081,"MEAN_ANOMALY":274.3075,"EPHEMERIS_TYPE":0,"CLASSIFICATION_TYPE":"U","NORAD_CAT_ID":66116,"ELEMENT_SET_NO":999,"REV_AT_EPOCH":2255,"BSTAR":0.0009216063,"MEAN_MOTION_DOT":0.00027032,"MEAN_MOTION_DDOT":0}]
